[{"OBJECT_NAME":"STARLINK-5516","OBJECT_ID":"2023-094AM","EPOCH":"2025-11-06T11:29:20.601024","MEAN_MOTION":15.02543259,"ECCENTRICITY":0.0001028,"INCLINATION":43.004,"RA_OF_ASC_NODE":327.0049,"ARG_OF_PERICENTER":275.0281,"MEAN_ANOMALY":85.0444,"EPHEMERIS_TYPE":0,"CLASSIFICATION_TYPE":"U","NORAD_CAT_ID":57253,"ELEMENT_SET_NO":999,"REV_AT_EPOCH":12873,"BSTAR":9.6686e-5,"MEAN_MOTION_DOT":1.103e-5,"MEAN_MOTION_DDOT":0},{"OBJECT_NAME":"STARLINK-5490","OBJECT_ID":"2023-094AN","EPOCH":"2025-11-06T07:50:43.384128","MEAN_MOTION":15.02538732,"ECCENTRICITY":0.0001107,"INCLINATION":43.0041,"RA_OF_ASC_NODE":327.5857,"ARG_OF_PERICENTER":263.5265,"MEAN_ANOMALY":96.5452,"EPHEMERIS_TYPE":0,"CLASSIFICATION_TYPE":"U","NORAD_CAT_ID":57254,"ELEMENT_SET_NO":999,"REV_AT_EPOCH":12871,"BSTAR":2.1943e-5,"MEAN_MOTION_DOT":9.3e-7,"MEAN_MOTION_DDOT":0},{"OBJECT_NAME":"STARLINK-5481","OBJECT_ID":"2023-094AP","EPOCH":"2025-11-06T07:53:55.165344","MEAN_MOTION":15.02535805,"ECCENTRICITY":0.0001024,"INCLINATION":43.004,"RA_OF_ASC_NODE":327.6025,"ARG_OF_PERICENTER":269.1776,"MEAN_ANOMALY":90.8949,"EPHEMERIS_TYPE":0,"CLASSIFICATION_TYPE":"U","NORAD_CAT_ID":57255,"ELEMENT_SET_NO":999,"REV_AT_EPOCH":12871,"BSTAR":3.2943e-5,"MEAN_MOTION_DOT":2.41e-6,"MEAN_MOTION_DDOT":0},{"OBJECT_NAME":"STARLINK-5512","OBJECT_ID":"2023-094AQ","EPOCH":"2025-11-05T09:04:57.709344","MEAN_MOTION":15.02535291,"ECCENTRICITY":0.0001067,"INCLINATION":43.004,"RA_OF_ASC_NODE":332.529,"ARG_OF_PERICENTER":265.1982,"MEAN_ANOMALY":94.8739,"EPHEMERIS_TYPE":0,"CLASSIFICATION_TYPE":"U","NORAD_CAT_ID":57256,"ELEMENT_SET_NO":999,"REV_AT_EPOCH":12857,"BSTAR":6.4754585e-5,"MEAN_MOTION_DOT":6.71e-6,"MEAN_MOTION_DDOT":0},{"OBJECT_NAME":"STARLINK-5503","OBJECT_ID":"2023-094AR","EPOCH":"2025-11-06T11:14:58.043040","MEAN_MOTION":15.0253535,"ECCENTRICITY":0.0001172,"INCLINATION":43.0047,"RA_OF_ASC_NODE":326.9299,"ARG_OF_PERICENTER":264.1115,"MEAN_ANOMALY":95.9594,"EPHEMERIS_TYPE":0,"CLASSIFICATION_TYPE":"U","NORAD_CAT_ID":57257,"ELEMENT_SET_NO":999,"REV_AT_EPOCH":12939,"BSTAR":1.2733e-5,"MEAN_MOTION_DOT":-3.2e-7,"MEAN_MOTION_DDOT":0},{"OBJECT_NAME":"STARLINK-5476","OBJECT_ID":"2023-094AS","EPOCH":"2025-11-06T07:45:55.662624","MEAN_MOTION":15.02538934,"ECCENTRICITY":0.0001114,"INCLINATION":43.0039,"RA_OF_ASC_NODE":327.5602,"ARG_OF_PERICENTER":269.5004,"MEAN_ANOMALY":90.5711,"EPHEMERIS_TYPE":0,"CLASSIFICATION_TYPE":"U","NORAD_CAT_ID":57258,"ELEMENT_SET_NO":999,"REV_AT_EPOCH":12871,"BSTAR":5.5022e-5,"MEAN_MOTION_DOT":5.4e-6,"MEAN_MOTION_DDOT":0},{"OBJECT_NAME":"STARLINK-5026","OBJECT_ID":"2023-094AU","EPOCH":"2025-11-06T07:36:20.344896","MEAN_MOTION":15.0253511,"ECCENTRICITY":0.0001273,"INCLINATION":43.0054,"RA_OF_ASC_NODE":327.5098,"ARG_OF_PERICENTER":264.2796,"MEAN_ANOMALY":95.7901,"EPHEMERIS_TYPE":0,"CLASSIFICATION_TYPE":"U","NORAD_CAT_ID":57260,"ELEMENT_SET_NO":999,"REV_AT_EPOCH":12935,"BSTAR":7.1358e-6,"MEAN_MOTION_DOT":-1.07e-6,"MEAN_MOTION_DDOT":0},{"OBJECT_NAME":"STARLINK-5485","OBJECT_ID":"2023-094AV","EPOCH":"2025-11-06T12:23:09.427776","MEAN_MOTION":15.02537575,"ECCENTRICITY":0.0001103,"INCLINATION":43.0032,"RA_OF_ASC_NODE":339.4317,"ARG_OF_PERICENTER":268.3918,"MEAN_ANOMALY":91.6798,"EPHEMERIS_TYPE":0,"CLASSIFICATION_TYPE":"U","NORAD_CAT_ID":57261,"ELEMENT_SET_NO":999,"REV_AT_EPOCH":12859,"BSTAR":5.2538e-5,"MEAN_MOTION_DOT":5.06e-6,"MEAN_MOTION_DDOT":0},{"OBJECT_NAME":"STARLINK-5504","OBJECT_ID":"2023-094AW","EPOCH":"2025-11-06T07:49:07.495680","MEAN_MOTION":15.02536381,"ECCENTRICITY":0.0001238,"INCLINATION":43.0047,"RA_OF_ASC_NODE":327.5777,"ARG_OF_PERICENTER":265.7429,"MEAN_ANOMALY":94.3271,"EPHEMERIS_TYPE":0,"CLASSIFICATION_TYPE":"U","NORAD_CAT_ID":57262,"ELEMENT_SET_NO":999,"REV_AT_EPOCH":12871,"BSTAR":2.4025e-5,"MEAN_MOTION_DOT":1.21e-6,"MEAN_MOTION_DDOT":0},{"OBJECT_NAME":"STARLINK-5509","OBJECT_ID":"2023-094AX","EPOCH":"2025-11-06T12:21:32.607936","MEAN_MOTION":15.0254438,"ECCENTRICITY":9.71e-5,"INCLINATION":43.0039,"RA_OF_ASC_NODE":339.4225,"ARG_OF_PERICENTER":266.1483,"MEAN_ANOMALY":93.9249,"EPHEMERIS_TYPE":0,"CLASSIFICATION_TYPE":"U","NORAD_CAT_ID":57263,"ELEMENT_SET_NO":999,"REV_AT_EPOCH":12859,"BSTAR":9.3097e-5,"MEAN_MOTION_DOT":1.054e-5,"MEAN_MOTION_DDOT":0},{"OBJECT_NAME":"STARLINK-5858","OBJECT_ID":"2023-094AY","EPOCH":"2025-11-04T12:25:17.303232","MEAN_MOTION":15.02535367,"ECCENTRICITY":0.0001193,"INCLINATION":43.0049,"RA_OF_ASC_NODE":337.2285,"ARG_OF_PERICENTER":265.5803,"MEAN_ANOMALY":94.4903,"EPHEMERIS_TYPE":0,"CLASSIFICATION_TYPE":"U","NORAD_CAT_ID":57264,"ELEMENT_SET_NO":999,"REV_AT_EPOCH":12844,"BSTAR":5.0599e-6,"MEAN_MOTION_DOT":-1.35e-6,"MEAN_MOTION_DDOT":0},{"OBJECT_NAME":"STARLINK-5890","OBJECT_ID":"2023-094AZ","EPOCH":"2025-11-04T18:45:00.387072","MEAN_MOTION":15.02536258,"ECCENTRICITY":0.00012637,"INCLINATION":43.0039,"RA_OF_ASC_NODE":335.7696,"ARG_OF_PERICENTER":270.094,"MEAN_ANOMALY":89.9758,"EPHEMERIS_TYPE":0,"CLASSIFICATION_TYPE":"U","NORAD_CAT_ID":57265,"ELEMENT_SET_NO":999,"REV_AT_EPOCH":12848,"BSTAR":-7.8771275e-5,"MEAN_MOTION_DOT":-1.268e-5,"MEAN_MOTION_DDOT":0},{"OBJECT_NAME":"STARLINK-30198","OBJECT_ID":"2023-096A","EPOCH":"2025-11-06T15:27:08.187264","MEAN_MOTION":15.02540235,"ECCENTRICITY":0.0001007,"INCLINATION":43.0029,"RA_OF_ASC_NODE":172.1458,"ARG_OF_PERICENTER":275.2207,"MEAN_ANOMALY":84.8521,"EPHEMERIS_TYPE":0,"CLASSIFICATION_TYPE":"U","NORAD_CAT_ID":57290,"ELEMENT_SET_NO":999,"REV_AT_EPOCH":12910,"BSTAR":6.8583e-5,"MEAN_MOTION_DOT":7.23e-6,"MEAN_MOTION_DDOT":0},{"OBJECT_NAME":"STARLINK-30239","OBJECT_ID":"2023-096B","EPOCH":"2025-11-06T16:58:04.284192","MEAN_MOTION":15.02546354,"ECCENTRICITY":0.0001289,"INCLINATION":43.0042,"RA_OF_ASC_NODE":171.7586,"ARG_OF_PERICENTER":268.1077,"MEAN_ANOMALY":91.9618,"EPHEMERIS_TYPE":0,"CLASSIFICATION_TYPE":"U","NORAD_CAT_ID":57291,"ELEMENT_SET_NO":999,"REV_AT_EPOCH":12911,"BSTAR":-4.0017e-5,"MEAN_MOTION_DOT":-7.44e-6,"MEAN_MOTION_DDOT":0},{"OBJECT_NAME":"STARLINK-30210","OBJECT_ID":"2023-096C","EPOCH":"2025-11-06T18:00:00.998784","MEAN_MOTION":15.31669525,"ECCENTRICITY":0.0030395,"INCLINATION":42.9863,"RA_OF_ASC_NODE":147.3764,"ARG_OF_PERICENTER":255.0155,"MEAN_ANOMALY":109.4264,"EPHEMERIS_TYPE":0,"CLASSIFICATION_TYPE":"U","NORAD_CAT_ID":57292,"ELEMENT_SET_NO":999,"REV_AT_EPOCH":586,"BSTAR":0.003044,"MEAN_MOTION_DOT":0.00097365,"MEAN_MOTION_DDOT":0},{"OBJECT_NAME":"STARLINK-30235","OBJECT_ID":"2023-096E","EPOCH":"2025-11-06T16:43:41.232000","MEAN_MOTION":15.02535419,"ECCENTRICITY":0.0001084,"INCLINATION":43.003,"RA_OF_ASC_NODE":171.6834,"ARG_OF_PERICENTER":266.8898,"MEAN_ANOMALY":93.182,"EPHEMERIS_TYPE":0,"CLASSIFICATION_TYPE":"U","NORAD_CAT_ID":57294,"ELEMENT_SET_NO":999,"REV_AT_EPOCH":12911,"BSTAR":0.00010775,"MEAN_MOTION_DOT":1.252e-5,"MEAN_MOTION_DDOT":0},{"OBJECT_NAME":"STARLINK-30238","OBJECT_ID":"2023-096G","EPOCH":"2025-11-05T23:38:39.365376","MEAN_MOTION":15.31284908,"ECCENTRICITY":0.0027124,"INCLINATION":42.9913,"RA_OF_ASC_NODE":151.1389,"ARG_OF_PERICENTER":252.3945,"MEAN_ANOMALY":107.3945,"EPHEMERIS_TYPE":0,"CLASSIFICATION_TYPE":"U","NORAD_CAT_ID":57296,"ELEMENT_SET_NO":999,"REV_AT_EPOCH":12931,"BSTAR":0.003853867,"MEAN_MOTION_DOT":0.00121893,"MEAN_MOTION_DDOT":0}]
