STARLINK-5516           
1 57253U 23094AM  25310.47871066  .00001103  00000+0  96686-4 0  9993
2 57253  43.0040 327.0049 0001028 275.0281  85.0444 15.02543259128738
STARLINK-5490           
1 57254U 23094AN  25310.32689102  .00000093  00000+0  21943-4 0  9997
2 57254  43.0041 327.5857 0001107 263.5265  96.5452 15.02538732128718
STARLINK-5481           
1 57255U 23094AP  25310.32911071  .00000241  00000+0  32943-4 0  9998
2 57255  43.0040 327.6025 0001024 269.1776  90.8949 15.02535805128719
STARLINK-5512           
1 57256U 23094AQ  25309.37844571  .00000671  00000+0  64755-4 0  9995
2 57256  43.0040 332.5290 0001067 265.1982  94.8739 15.02535291128575
STARLINK-5503           
1 57257U 23094AR  25310.46872735 -.00000032  00000+0  12733-4 0  9992
2 57257  43.0047 326.9299 0001172 264.1115  95.9594 15.02535350129391
STARLINK-5476           
1 57258U 23094AS  25310.32356091  .00000540  00000+0  55022-4 0  9991
2 57258  43.0039 327.5602 0001114 269.5004  90.5711 15.02538934128718
STARLINK-5026           
1 57260U 23094AU  25310.31690214 -.00000107  00000+0  71358-5 0  9992
2 57260  43.0054 327.5098 0001273 264.2796  95.7901 15.02535110129355
STARLINK-5485           
1 57261U 23094AV  25310.51608134  .00000506  00000+0  52538-4 0  9995
2 57261  43.0032 339.4317 0001103 268.3918  91.6798 15.02537575128592
STARLINK-5504           
1 57262U 23094AW  25310.32578120  .00000121  00000+0  24025-4 0  9999
2 57262  43.0047 327.5777 0001238 265.7429  94.3271 15.02536381128718
STARLINK-5509           
1 57263U 23094AX  25310.51496074  .00001054  00000+0  93097-4 0  9999
2 57263  43.0039 339.4225 0000971 266.1483  93.9249 15.02544380128592
STARLINK-5858           
1 57264U 23094AY  25308.51756138 -.00000135  00000+0  50599-5 0  9998
2 57264  43.0049 337.2285 0001193 265.5803  94.4903 15.02535367128444
STARLINK-5890           
1 57265U 23094AZ  25308.78125448 -.00001268  00000+0 -78771-4 0  9992
2 57265  43.0039 335.7696 0001263 270.0940  89.9758 15.02536258128485
STARLINK-30198          
1 57290U 23096A   25310.64384476  .00000723  00000+0  68583-4 0  9991
2 57290  43.0029 172.1458 0001007 275.2207  84.8521 15.02540235129102
STARLINK-30239          
1 57291U 23096B   25310.70699403 -.00000744  00000+0 -40017-4 0  9995
2 57291  43.0042 171.7586 0001289 268.1077  91.9618 15.02546354129118
STARLINK-30210          
1 57292U 23096C   25310.75001156  .00097365  00000+0  30440-2 0  9993
2 57292  42.9863 147.3764 0030395 255.0155 109.4264 15.31669525  5862
STARLINK-30235          
1 57294U 23096E   25310.69700500  .00001252  00000+0  10775-3 0  9997
2 57294  43.0030 171.6834 0001084 266.8898  93.1820 15.02535419129111
STARLINK-30238          
1 57296U 23096G   25309.98517784  .00121893  00000+0  38539-2 0  9990
2 57296  42.9913 151.1389 0027124 252.3945 107.3945 15.31284908129319
